{
  "type": "FeatureCollection",
  "features": [
    {
      "type": "Feature",
      "properties": {
        "norad_id": 66791,
        "name": "STARLINK-35867",
        "group": "last-30-days",
        "lat": -28.89569255923867,
        "lon": -132.82410225436635,
        "alt_km": 300.1526995159884,
        "timestamp": "2025-12-10T21:43:20.863492+00:00",
        "meta_object_name": "STARLINK-35867",
        "meta_object_id": "2025-278A",
        "meta_epoch": "2025-12-10T12:00:02.999808",
        "meta_mean_motion": 15.92323354,
        "meta_eccentricity": 0.00019485,
        "meta_inclination": 42.9987,
        "meta_ra_of_asc_node": 266.0188,
        "meta_arg_of_pericenter": 267.709,
        "meta_mean_anomaly": 243.0586,
        "meta_ephemeris_type": 0,
        "meta_classification_type": "U",
        "meta_norad_cat_id": 66791,
        "meta_element_set_no": 999,
        "meta_rev_at_epoch": 259,
        "meta_bstar": -0.0036396018,
        "meta_mean_motion_dot": -0.01271679,
        "meta_mean_motion_ddot": 0.00047034342,
        "tle_line1": "1 66791U 25278A   25344.50003472 -.01271679  47034-3 -36396-2 0  9997",
        "tle_line2": "2 66791  42.9987 266.0188 0001948 267.7090 243.0586 15.92323354  2595"
      },
      "geometry": {
        "type": "Point",
        "coordinates": [
          -132.82410225436635,
          -28.89569255923867
        ]
      }
    },
    {
      "type": "Feature",
      "properties": {
        "norad_id": 66792,
        "name": "STARLINK-35990",
        "group": "last-30-days",
        "lat": -28.09151366825183,
        "lon": -131.45324219316709,
        "alt_km": 300.0125794419555,
        "timestamp": "2025-12-10T21:43:20.863504+00:00",
        "meta_object_name": "STARLINK-35990",
        "meta_object_id": "2025-278B",
        "meta_epoch": "2025-12-10T12:00:02.999808",
        "meta_mean_motion": 15.92349849,
        "meta_eccentricity": 0.0001923,
        "meta_inclination": 42.9985,
        "meta_ra_of_asc_node": 266.0152,
        "meta_arg_of_pericenter": 268.6025,
        "meta_mean_anomaly": 243.57,
        "meta_ephemeris_type": 0,
        "meta_classification_type": "U",
        "meta_norad_cat_id": 66792,
        "meta_element_set_no": 999,
        "meta_rev_at_epoch": 259,
        "meta_bstar": -0.0035885767,
        "meta_mean_motion_dot": -0.01255752,
        "meta_mean_motion_ddot": 0.00045973908,
        "tle_line1": "1 66792U 25278B   25344.50003472 -.01255752  45974-3 -35886-2 0  9996",
        "tle_line2": "2 66792  42.9985 266.0152 0001923 268.6025 243.5700 15.92349849  2596"
      },
      "geometry": {
        "type": "Point",
        "coordinates": [
          -131.45324219316709,
          -28.09151366825183
        ]
      }
    },
    {
      "type": "Feature",
      "properties": {
        "norad_id": 66793,
        "name": "STARLINK-36051",
        "group": "last-30-days",
        "lat": -25.32952109040376,
        "lon": -127.04613498753017,
        "alt_km": 299.7721770546905,
        "timestamp": "2025-12-10T21:43:20.863514+00:00",
        "meta_object_name": "STARLINK-36051",
        "meta_object_id": "2025-278C",
        "meta_epoch": "2025-12-10T12:00:02.999808",
        "meta_mean_motion": 15.92451421,
        "meta_eccentricity": 0.00019083,
        "meta_inclination": 42.9988,
        "meta_ra_of_asc_node": 266.0034,
        "meta_arg_of_pericenter": 263.5448,
        "meta_mean_anomaly": 253.3065,
        "meta_ephemeris_type": 0,
        "meta_classification_type": "U",
        "meta_norad_cat_id": 66793,
        "meta_element_set_no": 999,
        "meta_rev_at_epoch": 249,
        "meta_bstar": -0.0036094995,
        "meta_mean_motion_dot": -0.01269649,
        "meta_mean_motion_ddot": 0.00046955413,
        "tle_line1": "1 66793U 25278C   25344.50003472 -.01269649  46955-3 -36095-2 0  9990",
        "tle_line2": "2 66793  42.9988 266.0034 0001908 263.5448 253.3065 15.92451421  2497"
      },
      "geometry": {
        "type": "Point",
        "coordinates": [
          -127.04613498753017,
          -25.32952109040376
        ]
      }
    },
    {
      "type": "Feature",
      "properties": {
        "norad_id": 66794,
        "name": "STARLINK-36062",
        "group": "last-30-days",
        "lat": -26.520379869057347,
        "lon": -128.89344594709067,
        "alt_km": 299.831865560589,
        "timestamp": "2025-12-10T21:43:20.863526+00:00",
        "meta_object_name": "STARLINK-36062",
        "meta_object_id": "2025-278D",
        "meta_epoch": "2025-12-10T12:00:02.999808",
        "meta_mean_motion": 15.92409291,
        "meta_eccentricity": 0.0001919,
        "meta_inclination": 42.9987,
        "meta_ra_of_asc_node": 266.0085,
        "meta_arg_of_pericenter": 268.0959,
        "meta_mean_anomaly": 246.7693,
        "meta_ephemeris_type": 0,
        "meta_classification_type": "U",
        "meta_norad_cat_id": 66794,
        "meta_element_set_no": 999,
        "meta_rev_at_epoch": 259,
        "meta_bstar": -0.0036194707,
        "meta_mean_motion_dot": -0.01270348,
        "meta_mean_motion_ddot": 0.00046983414,
        "tle_line1": "1 66794U 25278D   25344.50003472 -.01270348  46983-3 -36195-2 0  9991",
        "tle_line2": "2 66794  42.9987 266.0085 0001919 268.0959 246.7693 15.92409291  2594"
      },
      "geometry": {
        "type": "Point",
        "coordinates": [
          -128.89344594709067,
          -26.520379869057347
        ]
      }
    },
    {
      "type": "Feature",
      "properties": {
        "norad_id": 66795,
        "name": "STARLINK-36047",
        "group": "last-30-days",
        "lat": -23.81343453395878,
        "lon": -124.79433583960984,
        "alt_km": 299.61266915712713,
        "timestamp": "2025-12-10T21:43:20.863540+00:00",
        "meta_object_name": "STARLINK-36047",
        "meta_object_id": "2025-278E",
        "meta_epoch": "2025-12-10T12:00:02.999808",
        "meta_mean_motion": 15.92511949,
        "meta_eccentricity": 0.00019105,
        "meta_inclination": 42.9987,
        "meta_ra_of_asc_node": 265.9971,
        "meta_arg_of_pericenter": 262.3002,
        "meta_mean_anomaly": 257.0278,
        "meta_ephemeris_type": 0,
        "meta_classification_type": "U",
        "meta_norad_cat_id": 66795,
        "meta_element_set_no": 999,
        "meta_rev_at_epoch": 249,
        "meta_bstar": -0.0036537643,
        "meta_mean_motion_dot": -0.01289087,
        "meta_mean_motion_ddot": 0.0004830767,
        "tle_line1": "1 66795U 25278E   25344.50003472 -.01289087  48308-3 -36538-2 0  9996",
        "tle_line2": "2 66795  42.9987 265.9971 0001910 262.3002 257.0278 15.92511949  2491"
      },
      "geometry": {
        "type": "Point",
        "coordinates": [
          -124.79433583960984,
          -23.81343453395878
        ]
      }
    },
    {
      "type": "Feature",
      "properties": {
        "norad_id": 66796,
        "name": "STARLINK-35964",
        "group": "last-30-days",
        "lat": -3.15435070452177,
        "lon": 86.30445971529798,
        "alt_km": 258.05566369060944,
        "timestamp": "2025-12-10T21:43:20.863550+00:00",
        "meta_object_name": "STARLINK-35964",
        "meta_object_id": "2025-278F",
        "meta_epoch": "2025-12-10T12:00:02.999808",
        "meta_mean_motion": 16.06931937,
        "meta_eccentricity": 0.0002154,
        "meta_inclination": 42.9968,
        "meta_ra_of_asc_node": 265.4876,
        "meta_arg_of_pericenter": 266.1916,
        "meta_mean_anomaly": 92.8735,
        "meta_ephemeris_type": 0,
        "meta_classification_type": "U",
        "meta_norad_cat_id": 66796,
        "meta_element_set_no": 999,
        "meta_rev_at_epoch": 243,
        "meta_bstar": -0.0015785777,
        "meta_mean_motion_dot": -0.01274001,
        "meta_mean_motion_ddot": 0.00055193252,
        "tle_line1": "1 66796U 25278F   25344.50003472 -.01274001  55193-3 -15786-2 0  9999",
        "tle_line2": "2 66796  42.9968 265.4876 0002154 266.1916  92.8735 16.06931937  2433"
      },
      "geometry": {
        "type": "Point",
        "coordinates": [
          86.30445971529798,
          -3.15435070452177
        ]
      }
    },
    {
      "type": "Feature",
      "properties": {
        "norad_id": 66797,
        "name": "STARLINK-36099",
        "group": "last-30-days",
        "lat": -20.641586052796754,
        "lon": -120.3825652684958,
        "alt_km": 299.1110120156927,
        "timestamp": "2025-12-10T21:43:20.863560+00:00",
        "meta_object_name": "STARLINK-36099",
        "meta_object_id": "2025-278G",
        "meta_epoch": "2025-12-10T12:00:02.999808",
        "meta_mean_motion": 15.92615926,
        "meta_eccentricity": 0.00019345,
        "meta_inclination": 42.9988,
        "meta_ra_of_asc_node": 265.9843,
        "meta_arg_of_pericenter": 265.3236,
        "meta_mean_anomaly": 259.0392,
        "meta_ephemeris_type": 0,
        "meta_classification_type": "U",
        "meta_norad_cat_id": 66797,
        "meta_element_set_no": 999,
        "meta_rev_at_epoch": 265,
        "meta_bstar": -0.0036510482,
        "meta_mean_motion_dot": -0.01295106,
        "meta_mean_motion_ddot": 0.00048770519,
        "tle_line1": "1 66797U 25278G   25344.50003472 -.01295106  48771-3 -36510-2 0  9991",
        "tle_line2": "2 66797  42.9988 265.9843 0001934 265.3236 259.0392 15.92615926  2657"
      },
      "geometry": {
        "type": "Point",
        "coordinates": [
          -120.3825652684958,
          -20.641586052796754
        ]
      }
    }
  ]
}